{"version": 0.6, "generator": "Overpass API 0.7.62.7 375dc00a", "osm3s": {"timestamp_osm_base": "2025-08-07T16:20:06Z", "copyright": "The data included in this document is from www.openstreetmap.org. The data is made available under ODbL."}, "elements": [{"type": "node", "id": 1222608179, "lat": 14.756017, "lon": 46.252717, "tags": {"GNS:dsg_code": "HSPC", "GNS:dsg_name": "clinic", "GNS:id": "10780475", "amenity": "clinic", "healthcare": "clinic", "int_name": "Al Wa\u1e29dah a\u015f \u015ei\u1e29\u1e29\u012byah Rammah", "name": "\u0627\u0644\u0648\u062d\u062f\u0629 \u0627\u0644\u0635\u062d\u064a\u0629 \u0631\u0645\u0629", "name:ar": "\u0627\u0644\u0648\u062d\u062f\u0629 \u0627\u0644\u0635\u062d\u064a\u0629 \u0631\u0645\u0629", "name:de": "Al Wahdah as Sihhiyah Rammah", "name:en": "Al Wahdah as Sihhiyah Rammah", "name:fr": "Al Wahdah as Sihhiyah Rammah", "source:name": "GNS"}}, {"type": "node", "id": 1226942734, "lat": 14.7327, "lon": 46.441017, "tags": {"GNS:dsg_code": "HSPC", "GNS:dsg_name": "clinic", "GNS:id": "10780474", "amenity": "clinic", "healthcare": "clinic", "int_name": "Wa\u1e29dah \u015ei\u1e29\u1e29\u012byah Dh\u0101t al J\u0101r", "name": "\u0648\u062d\u062f\u0629 \u0635\u062d\u064a\u0629 \u0630\u0627\u062a \u0627\u0644\u062c\u0627\u0631", "name:ar": "\u0648\u062d\u062f\u0629 \u0635\u062d\u064a\u0629 \u0630\u0627\u062a \u0627\u0644\u062c\u0627\u0631", "name:de": "Wahdah Sihhiyah Dhat al Jar", "name:en": "Wahdah Sihhiyah Dhat al Jar", "name:fr": "Wahdah Sihhiyah Dhat al Jar", "source:name": "GNS"}}, {"type": "node", "id": 1226943479, "lat": 14.890183, "lon": 46.28355, "tags": {"GNS:dsg_code": "HSPC", "GNS:dsg_name": "clinic", "GNS:id": "10780732", "amenity": "clinic", "healthcare": "clinic", "int_name": "Al Wa\u1e29dah a\u015f \u015ei\u1e29\u1e29\u012byah Z\u0327ulaym\u012bn", "name": "\u0627\u0644\u0648\u062d\u062f\u0629 \u0627\u0644\u0635\u062d\u064a\u0629 \u0638\u0644\u064a\u0645\u064a\u0646", "name:ar": "\u0627\u0644\u0648\u062d\u062f\u0629 \u0627\u0644\u0635\u062d\u064a\u0629 \u0638\u0644\u064a\u0645\u064a\u0646", "name:de": "Al Wahdah as Sihhiyah Zulaymayn", "name:en": "Al Wahdah as Sihhiyah Zulaymayn", "name:fr": "Al Wahdah as Sihhiyah Zulaymayn", "source:name": "GNS"}}, {"type": "node", "id": 6178624985, "lat": 15.0395126, "lon": 46.3779543, "tags": {"name": "\u0637\u0631\u064a\u0642 \u0634\u0631\u0643\u0629 \u0627\u0648 \u0627\u0645 \u0641\u064a \u0627\u0644\u0631\u0645\u0644\u064a", "name:en": "OMV sand road", "shop": "toys"}}, {"type": "node", "id": 6181340598, "lat": 15.1005108, "lon": 46.474389, "tags": {"amenity": "water_point", "name": "omv sand road", "name:en": "\u0637\u0631\u064a\u0642 \u0627\u0644\u0631\u0645\u0644\u0629 \u0627\u0644\u0649 \u0634\u0631\u0643\u0629 \u0627\u0648 \u0627\u0645 \u0641\u064a"}}, {"type": "node", "id": 7098775687, "lat": 14.8915501, "lon": 46.2841026, "tags": {"amenity": "fuel", "name": "\u0628\u062f\u0627\u064a\u0629 \u0631\u0645\u0644\u0629 \u0627\u0648 \u0627\u0645 \u0641\u064a", "name:en": "OMV START SAND ROAD"}}, {"type": "node", "id": 11591822381, "lat": 14.7319021, "lon": 46.4408319}, {"type": "node", "id": 11591822382, "lat": 14.7318367, "lon": 46.4408119}, {"type": "node", "id": 11591822383, "lat": 14.7318485, "lon": 46.4407705}, {"type": "node", "id": 11591822384, "lat": 14.7319139, "lon": 46.4407904}, {"type": "way", "id": 1246876397, "nodes": [11591822384, 11591822383, 11591822382, 11591822381, 11591822384], "tags": {"building": "yes"}}]}