{"version": 0.6, "generator": "Overpass API 0.7.62.7 375dc00a", "osm3s": {"timestamp_osm_base": "2025-08-07T16:18:06Z", "copyright": "The data included in this document is from www.openstreetmap.org. The data is made available under ODbL."}, "elements": [{"type": "node", "id": 1218246472, "lat": 14.145474, "lon": 46.630299, "tags": {"GNS:dsg_code": "HSPC", "GNS:dsg_name": "clinic", "GNS:id": "10779780", "amenity": "clinic", "healthcare": "clinic", "int_name": "Al Wa\u1e29dah a\u015f \u015ei\u1e29\u1e29\u012byah ar Rahabah", "name": "\u0627\u0644\u0648\u062d\u062f\u0629 \u0627\u0644\u0635\u062d\u064a\u0629 \u0627\u0644\u0631\u062d\u0628\u0629", "name:ar": "\u0627\u0644\u0648\u062d\u062f\u0629 \u0627\u0644\u0635\u062d\u064a\u0629 \u0627\u0644\u0631\u062d\u0628\u0629", "name:de": "Al Wahdah as Sihhiyah ar Rahabah", "name:en": "Al Wahdah as Sihhiyah ar Rahabah", "name:fr": "Al Wahdah as Sihhiyah ar Rahabah", "source:name": "GNS"}}, {"type": "node", "id": 1218246476, "lat": 14.086557, "lon": 46.602322, "tags": {"GNS:dsg_code": "HSPC", "GNS:dsg_name": "clinic", "GNS:id": "10779779", "amenity": "clinic", "healthcare": "clinic", "int_name": "Al Wa\u1e29dah a\u015f \u015ei\u1e29\u1e29\u012byah li B\u0101khah", "name": "\u0627\u0644\u0648\u062d\u062f\u0629 \u0627\u0644\u0635\u062d\u064a\u0629 \u0644\u0628\u0627\u062e\u0629", "name:ar": "\u0627\u0644\u0648\u062d\u062f\u0629 \u0627\u0644\u0635\u062d\u064a\u0629 \u0644\u0628\u0627\u062e\u0629", "name:de": "Al Wahdah as Sihhiyah li Bakhah", "name:en": "Al Wahdah as Sihhiyah li Bakhah", "name:fr": "Al Wahdah as Sihhiyah li Bakhah", "source:name": "GNS"}}, {"type": "node", "id": 1218248910, "lat": 13.992908, "lon": 46.597876, "tags": {"GNS:dsg_code": "HSPC", "GNS:dsg_name": "clinic", "GNS:id": "10779782", "amenity": "clinic", "healthcare": "clinic", "int_name": "Al Wa\u1e29dah a\u015f \u015ei\u1e29\u1e29\u012byah Sin\u0101j", "name": "\u0627\u0644\u0648\u062d\u062f\u0629 \u0627\u0644\u0635\u062d\u064a\u0629 \u0633\u0646\u0627\u062c", "name:ar": "\u0627\u0644\u0648\u062d\u062f\u0629 \u0627\u0644\u0635\u062d\u064a\u0629 \u0633\u0646\u0627\u062c", "name:de": "Al Wahdah as Sihhiyah Sinaj", "name:en": "Al Wahdah as Sihhiyah Sinaj", "name:fr": "Al Wahdah as Sihhiyah Sinaj", "source:name": "GNS"}}, {"type": "node", "id": 1223169301, "lat": 13.886669, "lon": 46.668886, "tags": {"GNS:dsg_code": "HSPC", "GNS:dsg_name": "clinic", "GNS:id": "10779783", "amenity": "clinic", "healthcare": "clinic", "int_name": "Al Wa\u1e29dah a\u015f \u015ei\u1e29\u1e29\u012byah al \u2018Ayn", "name": "\u0627\u0644\u0648\u062d\u062f\u0629 \u0627\u0644\u0635\u062d\u064a\u0629 \u0627\u0644\u0639\u064a\u0646", "name:ar": "\u0627\u0644\u0648\u062d\u062f\u0629 \u0627\u0644\u0635\u062d\u064a\u0629 \u0627\u0644\u0639\u064a\u0646", "name:de": "Al Wahdah as Sihhiyah al Ayn", "name:en": "Al Wahdah as Sihhiyah al Ayn", "name:fr": "Al Wahdah as Sihhiyah al Ayn", "source:name": "GNS"}}, {"type": "node", "id": 1223170394, "lat": 14.133333, "lon": 46.833333, "tags": {"GNS:dsg_code": "TMB", "GNS:dsg_name": "tomb(s)", "GNS:id": "-3187178", "alt_name": "Hajar Irim", "amenity": "grave_yard", "int_name": "\u1e28ajar \u2018Arim", "name": "\u062d\u062c\u0631 \u0639\u0631\u0645", "name:ar": "\u062d\u062c\u0631 \u0639\u0631\u0645", "name:de": "Hajar Irim", "name:en": "Hajar Irim", "name:fr": "Hajar Irim", "source:name": "GNS"}}, {"type": "node", "id": 1225457852, "lat": 14.111645, "lon": 46.859298, "tags": {"GNS:dsg_code": "HSPC", "GNS:dsg_name": "clinic", "GNS:id": "10778982", "amenity": "clinic", "healthcare": "clinic", "int_name": "Al Wa\u1e29dah a\u015f \u015ei\u1e29\u1e29\u012byah Khabr Laqm\u016bsh", "name": "\u0627\u0644\u0648\u062d\u062f\u0629 \u0627\u0644\u0635\u062d\u064a\u0629 \u062e\u0628\u0631 \u0644\u0642\u0645\u0648\u0634", "name:ar": "\u0627\u0644\u0648\u062d\u062f\u0629 \u0627\u0644\u0635\u062d\u064a\u0629 \u062e\u0628\u0631 \u0644\u0642\u0645\u0648\u0634", "name:de": "Al Wahdah as Sihhiyah Khabr Laqmush", "name:en": "Al Wahdah as Sihhiyah Khabr Laqmush", "name:fr": "Al Wahdah as Sihhiyah Khabr Laqmush", "source:name": "GNS"}}, {"type": "node", "id": 1225457967, "lat": 14.058063, "lon": 46.9141116, "tags": {"GNS:dsg_code": "HSP", "GNS:dsg_name": "hospital", "GNS:id": "10779784", "amenity": "hospital", "healthcare": "hospital", "int_name": "Mustashf\u00e1 al Ma\u1e29fid", "name": "\u0645\u0633\u062a\u0634\u0641\u0649 \u0627\u0644\u0645\u062d\u0641\u062f", "name:ar": "\u0645\u0633\u062a\u0634\u0641\u0649 \u0627\u0644\u0645\u062d\u0641\u062f", "name:de": "Mustashfa al Mahfid", "name:en": "Mustashfa al Mahfid", "name:fr": "Mustashfa al Mahfid", "source:name": "GNS"}}, {"type": "node", "id": 1225457997, "lat": 14.185767, "lon": 46.928283, "tags": {"GNS:dsg_code": "HSPC", "GNS:dsg_name": "clinic", "GNS:id": "10780811", "amenity": "clinic", "healthcare": "clinic", "int_name": "Al Wa\u1e29dah a\u015f \u015ei\u1e29\u1e29\u012byah Rafa\u1e11", "name": "\u0627\u0644\u0648\u062d\u062f\u0629 \u0627\u0644\u0635\u062d\u064a\u0629 \u0631\u0641\u0636", "name:ar": "\u0627\u0644\u0648\u062d\u062f\u0629 \u0627\u0644\u0635\u062d\u064a\u0629 \u0631\u0641\u0636", "name:de": "Al Wahdah as Sihhiyah Rafd", "name:en": "Al Wahdah as Sihhiyah Rafd", "name:fr": "Al Wahdah as Sihhiyah Rafd", "source:name": "GNS"}}, {"type": "node", "id": 1225458096, "lat": 14.183333, "lon": 46.883333, "tags": {"GNS:dsg_code": "TMB", "GNS:dsg_name": "tomb(s)", "GNS:id": "-3187578", "alt_name": "Haid al-Jalb", "amenity": "grave_yard", "int_name": "\u1e28ayd al Jalb", "name": "\u062d\u064a\u062f \u0627\u0644\u062c\u0644\u0628", "name:ar": "\u062d\u064a\u062f \u0627\u0644\u062c\u0644\u0628", "name:de": "Hayd al Jalb", "name:en": "Hayd al Jalb", "name:fr": "Hayd al Jalb", "source:name": "GNS"}}, {"type": "node", "id": 8568262918, "lat": 14.0640437, "lon": 46.9157508, "tags": {"amenity": "school", "name": "\u0627\u0644\u0645\u062d\u0641\u062f", "name:en": "Al Mahfad"}}, {"type": "node", "id": 8759700787, "lat": 14.1549743, "lon": 46.6170368, "tags": {"amenity": "place_of_worship", "religion": "muslim"}}, {"type": "node", "id": 8759753048, "lat": 14.0808192, "lon": 46.8526858, "tags": {"amenity": "place_of_worship", "religion": "muslim"}}, {"type": "node", "id": 8759753049, "lat": 14.0804218, "lon": 46.8536947, "tags": {"amenity": "school"}}, {"type": "node", "id": 8759753050, "lat": 14.0803924, "lon": 46.8491201, "tags": {"amenity": "place_of_worship", "religion": "muslim"}}, {"type": "node", "id": 8759761317, "lat": 14.1427256, "lon": 46.6189022, "tags": {"amenity": "place_of_worship", "religion": "muslim"}}, {"type": "node", "id": 8759761327, "lat": 14.1457155, "lon": 46.6289846, "tags": {"amenity": "place_of_worship", "religion": "muslim"}}, {"type": "node", "id": 8759761328, "lat": 14.1471831, "lon": 46.6292729, "tags": {"amenity": "school"}}, {"type": "node", "id": 8759761486, "lat": 14.1363806, "lon": 46.6727409, "tags": {"amenity": "place_of_worship", "religion": "muslim"}}, {"type": "node", "id": 8759761585, "lat": 14.1668494, "lon": 46.7305518, "tags": {"amenity": "place_of_worship", "religion": "muslim"}}, {"type": "node", "id": 8759761671, "lat": 14.1221848, "lon": 46.7741207, "tags": {"amenity": "place_of_worship", "religion": "muslim"}}, {"type": "node", "id": 8759761672, "lat": 14.1235422, "lon": 46.7770907, "tags": {"amenity": "place_of_worship", "religion": "muslim"}}, {"type": "node", "id": 8759761673, "lat": 14.1223114, "lon": 46.7814669, "tags": {"amenity": "place_of_worship", "religion": "muslim"}}, {"type": "node", "id": 8759761825, "lat": 14.0421249, "lon": 46.7573512, "tags": {"amenity": "place_of_worship", "religion": "muslim"}}, {"type": "node", "id": 8759762139, "lat": 14.1180507, "lon": 46.8047029, "tags": {"amenity": "place_of_worship", "religion": "muslim"}}, {"type": "node", "id": 8759885970, "lat": 14.1473647, "lon": 46.6205406}, {"type": "node", "id": 8759885971, "lat": 14.1473296, "lon": 46.6205929}, {"type": "node", "id": 8759885972, "lat": 14.1473773, "lon": 46.6206269}, {"type": "node", "id": 8759885973, "lat": 14.1474124, "lon": 46.6205746}, {"type": "node", "id": 8759885974, "lat": 14.147571, "lon": 46.6207059}, {"type": "node", "id": 8759885975, "lat": 14.1474774, "lon": 46.6206402}, {"type": "node", "id": 8759885976, "lat": 14.1475242, "lon": 46.6205692}, {"type": "node", "id": 8759885977, "lat": 14.1476179, "lon": 46.6206349}, {"type": "node", "id": 8759885978, "lat": 14.1471664, "lon": 46.6204051}, {"type": "node", "id": 8759885979, "lat": 14.1471185, "lon": 46.6204793}, {"type": "node", "id": 8759885980, "lat": 14.1471955, "lon": 46.6205321}, {"type": "node", "id": 8759885981, "lat": 14.1472433, "lon": 46.620458}, {"type": "node", "id": 8759885982, "lat": 14.1472437, "lon": 46.6202961}, {"type": "node", "id": 8759885983, "lat": 14.1472021, "lon": 46.6203806}, {"type": "node", "id": 8759885984, "lat": 14.1472898, "lon": 46.6204266}, {"type": "node", "id": 8759885985, "lat": 14.1473314, "lon": 46.6203421}, {"type": "node", "id": 8759885986, "lat": 14.1473064, "lon": 46.6202001}, {"type": "node", "id": 8759885987, "lat": 14.1472648, "lon": 46.6202845}, {"type": "node", "id": 8759885988, "lat": 14.1473526, "lon": 46.6203305}, {"type": "node", "id": 8759885989, "lat": 14.1473942, "lon": 46.620246}, {"type": "node", "id": 8759885990, "lat": 14.1474525, "lon": 46.6207244}, {"type": "node", "id": 8759885991, "lat": 14.1474148, "lon": 46.6208585}, {"type": "node", "id": 8759885992, "lat": 14.1475281, "lon": 46.6208924}, {"type": "node", "id": 8759885993, "lat": 14.1475658, "lon": 46.6207583}, {"type": "node", "id": 8760483012, "lat": 13.9927897, "lon": 46.5976953, "tags": {"amenity": "school"}}, {"type": "node", "id": 8764832187, "lat": 14.0624096, "lon": 46.9203436, "tags": {"amenity": "school"}}, {"type": "node", "id": 8764832188, "lat": 14.0603385, "lon": 46.9108218, "tags": {"amenity": "school"}}, {"type": "node", "id": 8764832189, "lat": 14.0594019, "lon": 46.9109774, "tags": {"amenity": "place_of_worship", "religion": "muslim"}}, {"type": "node", "id": 8764832190, "lat": 14.0575259, "lon": 46.9142953, "tags": {"amenity": "place_of_worship", "religion": "muslim"}}, {"type": "node", "id": 8764832191, "lat": 14.0602292, "lon": 46.9139993, "tags": {"amenity": "place_of_worship", "religion": "muslim"}}, {"type": "node", "id": 8764832204, "lat": 14.0586948, "lon": 46.9103351, "tags": {"amenity": "school"}}, {"type": "node", "id": 8764832205, "lat": 14.057602, "lon": 46.9080136, "tags": {"amenity": "place_of_worship", "religion": "muslim"}}, {"type": "node", "id": 8764832206, "lat": 14.057624, "lon": 46.9067087, "tags": {"amenity": "fuel"}}, {"type": "node", "id": 8764832224, "lat": 14.0533394, "lon": 46.8449467, "tags": {"amenity": "place_of_worship", "religion": "muslim"}}, {"type": "node", "id": 8764832225, "lat": 14.053813, "lon": 46.8461269, "tags": {"amenity": "school"}}, {"type": "node", "id": 8764832226, "lat": 14.0472215, "lon": 46.8474018, "tags": {"amenity": "place_of_worship", "religion": "muslim"}}, {"type": "node", "id": 8764832310, "lat": 14.0079254, "lon": 46.6436757, "tags": {"amenity": "school"}}, {"type": "node", "id": 8764832311, "lat": 14.0085879, "lon": 46.6426061, "tags": {"amenity": "place_of_worship", "religion": "muslim"}}, {"type": "node", "id": 8764832323, "lat": 13.9728112, "lon": 46.5368199, "tags": {"amenity": "school"}}, {"type": "node", "id": 8764832324, "lat": 13.9735139, "lon": 46.5373027, "tags": {"amenity": "place_of_worship", "religion": "muslim"}}, {"type": "node", "id": 8764832333, "lat": 14.0038512, "lon": 46.5329973, "tags": {"amenity": "place_of_worship", "religion": "muslim"}}, {"type": "node", "id": 8764832404, "lat": 13.9796839, "lon": 46.5186987, "tags": {"amenity": "place_of_worship", "religion": "muslim"}}, {"type": "node", "id": 8764832411, "lat": 13.9778736, "lon": 46.5074927, "tags": {"amenity": "place_of_worship", "religion": "muslim"}}, {"type": "node", "id": 8836204588, "lat": 14.0372675, "lon": 46.9233989, "tags": {"amenity": "place_of_worship", "religion": "muslim"}}, {"type": "node", "id": 8836204598, "lat": 14.0396594, "lon": 46.9294453, "tags": {"amenity": "place_of_worship", "religion": "muslim"}}, {"type": "node", "id": 8836204623, "lat": 14.0531937, "lon": 46.9134114, "tags": {"amenity": "place_of_worship", "religion": "muslim"}}, {"type": "node", "id": 8836204624, "lat": 14.0619292, "lon": 46.9206754, "tags": {"amenity": "place_of_worship", "religion": "muslim"}}, {"type": "node", "id": 8836204679, "lat": 14.1226028, "lon": 46.9550514, "tags": {"amenity": "place_of_worship", "religion": "muslim"}}, {"type": "node", "id": 8836204680, "lat": 14.1216195, "lon": 46.9448054, "tags": {"amenity": "place_of_worship", "religion": "muslim"}}, {"type": "node", "id": 11579011261, "lat": 14.1251061, "lon": 46.7696634}, {"type": "node", "id": 11579011262, "lat": 14.1250567, "lon": 46.7696973}, {"type": "node", "id": 11579011263, "lat": 14.1250328, "lon": 46.7696602}, {"type": "node", "id": 11579011264, "lat": 14.1250822, "lon": 46.7696263}, {"type": "node", "id": 11579019292, "lat": 14.0801876, "lon": 46.8504677}, {"type": "node", "id": 11579019293, "lat": 14.0801152, "lon": 46.8504488}, {"type": "node", "id": 11579019294, "lat": 14.0801339, "lon": 46.8503727}, {"type": "node", "id": 11579019295, "lat": 14.0802063, "lon": 46.8503916}, {"type": "node", "id": 11579019956, "lat": 14.0607962, "lon": 46.9126432}, {"type": "node", "id": 11579019957, "lat": 14.0607986, "lon": 46.9127084}, {"type": "node", "id": 11579019958, "lat": 14.0608373, "lon": 46.9127069}, {"type": "node", "id": 11579019959, "lat": 14.0608348, "lon": 46.9126417}, {"type": "node", "id": 11579021196, "lat": 14.052018, "lon": 46.8458135}, {"type": "node", "id": 11579021197, "lat": 14.0520039, "lon": 46.8457639}, {"type": "node", "id": 11579021198, "lat": 14.0520403, "lon": 46.8457529}, {"type": "node", "id": 11579021199, "lat": 14.0520544, "lon": 46.8458026}, {"type": "node", "id": 11579022067, "lat": 14.1138194, "lon": 46.8589059}, {"type": "node", "id": 11579022068, "lat": 14.1137601, "lon": 46.8590181}, {"type": "node", "id": 11579024513, "lat": 14.1220595, "lon": 46.7783626}, {"type": "node", "id": 11579024514, "lat": 14.1219865, "lon": 46.7783772}, {"type": "node", "id": 11579024515, "lat": 14.1220022, "lon": 46.7784612}, {"type": "node", "id": 11579024516, "lat": 14.1220752, "lon": 46.7784466}, {"type": "node", "id": 11579027769, "lat": 14.1138565, "lon": 46.8590722}, {"type": "node", "id": 11579027770, "lat": 14.1139158, "lon": 46.85896}, {"type": "node", "id": 11579062596, "lat": 14.0054119, "lon": 46.5333459}, {"type": "node", "id": 11579062597, "lat": 14.0053716, "lon": 46.5333455}, {"type": "node", "id": 11579062598, "lat": 14.0053711, "lon": 46.533405}, {"type": "node", "id": 11579062599, "lat": 14.0054114, "lon": 46.5334053}, {"type": "node", "id": 11579159269, "lat": 13.9022491, "lon": 46.8384262}, {"type": "node", "id": 11579159270, "lat": 13.9022121, "lon": 46.8384385}, {"type": "node", "id": 11579159271, "lat": 13.902227, "lon": 46.8384861}, {"type": "node", "id": 11579159272, "lat": 13.902264, "lon": 46.8384738}, {"type": "node", "id": 11579159273, "lat": 13.9328807, "lon": 46.6945433}, {"type": "node", "id": 11579159274, "lat": 13.9328345, "lon": 46.6945139}, {"type": "node", "id": 11579159275, "lat": 13.9328097, "lon": 46.6945553}, {"type": "node", "id": 11579159276, "lat": 13.9328559, "lon": 46.6945846}, {"type": "node", "id": 11579169502, "lat": 13.8931063, "lon": 46.669559}, {"type": "node", "id": 11579169503, "lat": 13.8930612, "lon": 46.6695343}, {"type": "node", "id": 11579169504, "lat": 13.8930281, "lon": 46.6695984}, {"type": "node", "id": 11579169505, "lat": 13.8930732, "lon": 46.6696231}, {"type": "node", "id": 11579171617, "lat": 13.9322593, "lon": 46.6939834}, {"type": "node", "id": 11579171618, "lat": 13.93219, "lon": 46.6939908}, {"type": "node", "id": 11579171619, "lat": 13.9321966, "lon": 46.6940569}, {"type": "node", "id": 11579171620, "lat": 13.932266, "lon": 46.6940495}, {"type": "node", "id": 11591116283, "lat": 14.07536, "lon": 46.8410786}, {"type": "node", "id": 11591116284, "lat": 14.0753055, "lon": 46.841037}, {"type": "node", "id": 11591116285, "lat": 14.0753465, "lon": 46.8409798}, {"type": "node", "id": 11591116286, "lat": 14.075401, "lon": 46.8410214}, {"type": "node", "id": 11591122984, "lat": 13.8861525, "lon": 46.6686986}, {"type": "node", "id": 11591122985, "lat": 13.8861134, "lon": 46.6687285}, {"type": "node", "id": 11591122986, "lat": 13.8861716, "lon": 46.6688094}, {"type": "node", "id": 11591122987, "lat": 13.8862107, "lon": 46.6687795}, {"type": "node", "id": 11591131332, "lat": 13.9779141, "lon": 46.5073797}, {"type": "node", "id": 11591131333, "lat": 13.9778405, "lon": 46.5074387}, {"type": "node", "id": 11591131334, "lat": 13.977883, "lon": 46.507495}, {"type": "node", "id": 11591131335, "lat": 13.9779566, "lon": 46.5074361}, {"type": "node", "id": 11591131418, "lat": 13.8857499, "lon": 46.666855}, {"type": "node", "id": 11591131419, "lat": 13.8856976, "lon": 46.6668962}, {"type": "node", "id": 11591131420, "lat": 13.8857309, "lon": 46.6669411}, {"type": "node", "id": 11591131421, "lat": 13.8857832, "lon": 46.6668999}, {"type": "way", "id": 946275576, "nodes": [8759885973, 8759885972, 8759885971, 8759885970, 8759885973], "tags": {"building": "yes"}}, {"type": "way", "id": 946275577, "nodes": [8759885977, 8759885974, 8759885975, 8759885976, 8759885977], "tags": {"building": "yes"}}, {"type": "way", "id": 946275578, "nodes": [8759885981, 8759885980, 8759885979, 8759885978, 8759885981], "tags": {"building": "yes"}}, {"type": "way", "id": 946275579, "nodes": [8759885985, 8759885984, 8759885983, 8759885982, 8759885985], "tags": {"building": "yes"}}, {"type": "way", "id": 946275580, "nodes": [8759885989, 8759885988, 8759885987, 8759885986, 8759885989], "tags": {"building": "yes"}}, {"type": "way", "id": 946275581, "nodes": [8759885993, 8759885992, 8759885991, 8759885990, 8759885993], "tags": {"building": "yes"}}, {"type": "way", "id": 1245532164, "nodes": [11579011264, 11579011263, 11579011262, 11579011261, 11579011264], "tags": {"building": "yes"}}, {"type": "way", "id": 1245532260, "nodes": [11579024516, 11579024515, 11579024514, 11579024513, 11579024516], "tags": {"building": "yes"}}, {"type": "way", "id": 1245532699, "nodes": [11579027770, 11579027769, 11579022068, 11579022067, 11579027770], "tags": {"building": "yes"}}, {"type": "way", "id": 1245532783, "nodes": [11579019295, 11579019294, 11579019293, 11579019292, 11579019295], "tags": {"building": "yes"}}, {"type": "way", "id": 1245533730, "nodes": [11579021199, 11579021198, 11579021197, 11579021196, 11579021199], "tags": {"building": "yes"}}, {"type": "way", "id": 1245533981, "nodes": [11579019959, 11579019958, 11579019957, 11579019956, 11579019959], "tags": {"building": "yes"}}, {"type": "way", "id": 1245551788, "nodes": [11579159272, 11579159271, 11579159270, 11579159269, 11579159272], "tags": {"building": "yes"}}, {"type": "way", "id": 1245552107, "nodes": [11579159276, 11579159275, 11579159274, 11579159273, 11579159276], "tags": {"building": "yes"}}, {"type": "way", "id": 1245553874, "nodes": [11579171620, 11579171619, 11579171618, 11579171617, 11579171620], "tags": {"building": "yes"}}, {"type": "way", "id": 1245553879, "nodes": [11579169505, 11579169504, 11579169503, 11579169502, 11579169505], "tags": {"building": "yes"}}, {"type": "way", "id": 1245553899, "nodes": [11579062599, 11579062598, 11579062597, 11579062596, 11579062599], "tags": {"building": "yes"}}, {"type": "way", "id": 1246795075, "nodes": [11591122987, 11591122986, 11591122985, 11591122984, 11591122987], "tags": {"building": "yes"}}, {"type": "way", "id": 1246795081, "nodes": [11591131421, 11591131420, 11591131419, 11591131418, 11591131421], "tags": {"building": "yes"}}, {"type": "way", "id": 1246795346, "nodes": [11591131335, 11591131334, 11591131333, 11591131332, 11591131335], "tags": {"building": "yes"}}, {"type": "way", "id": 1246795386, "nodes": [11591116286, 11591116285, 11591116284, 11591116283, 11591116286], "tags": {"building": "yes"}}]}